QIANFAN-25              
1 61558U 24185G   25343.51997050  .00000759  00000+0  45566-3 0  9997
2 61558  88.9809  78.5536 0008284 333.6296  26.4463 14.05904967 69057
QIANFAN-26              
1 61559U 24185H   25343.48054719  .00000456  00000+0  44273-3 0  9998
2 61559  88.9813  80.1019 0006203  39.7554 320.4065 13.77810602 68221
QIANFAN-27              
1 61560U 24185J   25343.52368010  .00001108  00000+0  44708-3 0  9995
2 61560  88.9806  77.3201 0005854 308.2853  51.7814 14.27327963 69702
QIANFAN-28              
1 61561U 24185K   25343.50744117  .00001719  00000+0  68736-3 0  9995
2 61561  88.9825  77.3250 0005202 307.7503  52.3220 14.28026061 69716
QIANFAN-29              
1 61562U 24185L   25343.48029328  .00000288  00000+0  42685-3 0  9998
2 61562  88.9790  81.6468 0011384  67.4078 292.8276 13.51009519 67356
QIANFAN-30              
1 61563U 24185M   25343.52678020  .00000196  00000+0  28988-3 0  9991
2 61563  88.9810  81.1661 0008683  56.9068 303.2915 13.49987513 67634
QIANFAN-31              
1 61564U 24185N   25343.51406947  .00000324  00000+0  43195-3 0  9998
2 61564  88.9794  80.9748 0007897  52.5744 307.6129 13.57964832 67721
QIANFAN-32              
1 61565U 24185P   25343.49701125  .00000288  00000+0  42876-3 0  9996
2 61565  88.9853  81.3023 0011047  77.9585 282.2803 13.50734336 67606
